{
    "links": {
        "self": "http://www.neowsapp.com/rest/v1/neo/3836311?api_key=iIulBulltgU6a56xZRHN4H3l9WmuAYTsLGpBGhQ2"
    },
    "id": "3836311",
    "neo_reference_id": "3836311",
    "name": "(2018 WT1)",
    "designation": "2018 WT1",
    "nasa_jpl_url": "http://ssd.jpl.nasa.gov/sbdb.cgi?sstr=3836311",
    "absolute_magnitude_h": 25.5,
    "estimated_diameter": {
        "kilometers": {
            "estimated_diameter_min": 0.0211132445,
            "estimated_diameter_max": 0.0472106499
        },
        "meters": {
            "estimated_diameter_min": 21.113244479,
            "estimated_diameter_max": 47.2106498806
        },
        "miles": {
            "estimated_diameter_min": 0.0131191578,
            "estimated_diameter_max": 0.0293353287
        },
        "feet": {
            "estimated_diameter_min": 69.2691770164,
            "estimated_diameter_max": 154.8905885541
        }
    },
    "is_potentially_hazardous_asteroid": false,
    "close_approach_data": [
        {
            "close_approach_date": "2018-11-28",
            "close_approach_date_full": "2018-Nov-28 00:41",
            "epoch_date_close_approach": 1543365660000,
            "relative_velocity": {
                "kilometers_per_second": "9.7779189822",
                "kilometers_per_hour": "35200.5083360309",
                "miles_per_hour": "21872.2269713521"
            },
            "miss_distance": {
                "astronomical": "0.0168413908",
                "lunar": "6.5513010212",
                "kilometers": "2519436.191517596",
                "miles": "1565505.0559749848"
            },
            "orbiting_body": "Earth"
        }
    ],
    "orbital_data": {
        "orbit_id": "4",
        "orbit_determination_date": "2018-12-06 06:55:24",
        "first_observation_date": "2018-11-28",
        "last_observation_date": "2018-12-03",
        "data_arc_in_days": 5,
        "observations_used": 95,
        "orbit_uncertainty": "7",
        "minimum_orbit_intersection": ".0121303",
        "jupiter_tisserand_invariant": "3.785",
        "epoch_osculation": "2459000.5",
        "eccentricity": ".5051698651692006",
        "semi_major_axis": "1.894547024115236",
        "inclination": "4.397665746016009",
        "ascending_node_longitude": "251.7616195488271",
        "orbital_period": "952.4814158309767",
        "perihelion_distance": ".9374789593862322",
        "perihelion_argument": "138.5035758469829",
        "aphelion_distance": "2.851615088844241",
        "perihelion_time": "2459375.838951607881",
        "mean_anomaly": "218.1368409577292",
        "mean_motion": ".3779601302624093",
        "equinox": "J2000",
        "orbit_class": {
            "orbit_class_type": "APO",
            "orbit_class_description": "Near-Earth asteroid orbits which cross the Earth’s orbit similar to that of 1862 Apollo",
            "orbit_class_range": "a (semi-major axis) > 1.0 AU; q (perihelion) < 1.017 AU"
        }
    },
    "is_sentry_object": false
}